NORAD_CAT_ID,OBJECT_NAME,OBJECT_TYPE,EPOCH,MEAN_MOTION,ECCENTRICITY,INCLINATION,RA_OF_ASC_NODE,ARG_OF_PERICENTER,MEAN_ANOMALY,BSTAR,MEAN_MOTION_DOT,MEAN_MOTION_DDOT,TLE_LINE0,TLE_LINE1,TLE_LINE2,SEMIMAJOR_AXIS,PERIOD,APOGEE,PERIGEE,DECAYED
53936.0,STARLINK-4791,PAYLOAD,2023-06-25 16:23:54,15.08837346,0.0001015,53.2163,54.1919,92.7894,267.3215,5.565e-05,5.98e-06,0.0,0 STARLINK-4791,1 53936U 22119BC  23176.68326762  .00000598  00000-0  55650-4 0  9997,2 53936  53.2163  54.1919 0001015  92.7894 267.3215 15.08837346 42460,6917.889,95.438,540.456,539.051,0.0
53936.0,STARLINK-4791,PAYLOAD,2023-06-26 22:36:13,15.08842293,8.21e-05,53.2166,48.5429,90.3378,269.7709,3.8893e-05,3.31e-06,0.0,0 STARLINK-4791,1 53936U 22119BC  23177.94182598  .00000331  00000-0  38893-4 0  9999,2 53936  53.2166  48.5429 0000821  90.3378 269.7709 15.08842293 42653,6917.873,95.437,540.306,539.17,0.0
53936.0,STARLINK-4791,PAYLOAD,2023-06-27 20:51:38,15.08839282,9.14e-05,53.2174,44.3819,92.8167,267.293,9.0713e-05,1.156e-05,0.0,0 STARLINK-4791,1 53936U 22119BC  23178.86919100  .00001156  00000-0  90713-4 0  9993,2 53936  53.2174  44.3819 0000914  92.8167 267.2930 15.08839282 42793,6917.883,95.438,540.38,539.115,0.0
53936.0,STARLINK-4791,PAYLOAD,2023-06-28 22:17:48,15.08842005,9.36e-05,53.2175,39.622,86.71,273.3999,7.9598e-05,9.79e-06,0.0,0 STARLINK-4791,1 53936U 22119BC  23179.92903122  .00000979  00000-0  79598-4 0  9998,2 53936  53.2175  39.6220 0000936  86.7100 273.3999 15.08842005 42958,6917.874,95.437,540.387,539.092,0.0
53936.0,STARLINK-4791,PAYLOAD,2023-06-29 18:57:49,15.08834121,7.07e-05,53.2174,35.7543,98.6141,261.4931,0.00016581,2.352e-05,0.0,0 STARLINK-4791,1 53936U 22119BC  23180.79015620  .00002352  00000-0  16581-3 0  9991,2 53936  53.2174  35.7543 0000707  98.6141 261.4931 15.08834121 43084,6917.898,95.438,540.252,539.274,0.0
53936.0,STARLINK-4791,PAYLOAD,2023-06-29 22:08:35,15.08841278,9.02e-05,53.2173,35.1603,102.2981,257.8112,5.0497e-05,5.16e-06,0.0,0 STARLINK-4791,1 53936U 22119BC  23180.92263218  .00000516  00000-0  50497-4 0  9999,2 53936  53.2173  35.1603 0000902 102.2981 257.8112 15.08841278 43109,6917.876,95.437,540.365,539.117,0.0
53936.0,STARLINK-4791,PAYLOAD,2023-07-01 07:31:41,15.08844025,9.51e-05,53.2168,28.9159,103.6622,256.4476,9.4384e-05,1.215e-05,0.0,0 STARLINK-4791,1 53936U 22119BC  23182.31367090  .00001215  00000-0  94384-4 0  9997,2 53936  53.2168  28.9159 0000951 103.6622 256.4476 15.08844025 43314,6917.868,95.437,540.391,539.075,0.0
53936.0,STARLINK-4791,PAYLOAD,2023-07-03 00:51:42,15.08848002,9.34e-05,53.2184,21.185,88.5951,271.5148,9.6699e-05,1.252e-05,0.0,0 STARLINK-4791,1 53936U 22119BC  23184.03590845  .00001252  00000-0  96699-4 0  9996,2 53936  53.2184  21.1850 0000934  88.5951 271.5148 15.08848002 43573,6917.856,95.437,540.367,539.075,0.0
53936.0,STARLINK-4791,PAYLOAD,2023-07-03 11:59:24,15.08839106,0.0001054,53.2193,19.1058,90.189,269.9223,0.00014582,2.034e-05,0.0,0 STARLINK-4791,1 53936U 22119BC  23184.49959410  .00002034  00000-0  14582-3 0  9992,2 53936  53.2193  19.1058 0001054  90.1890 269.9223 15.08839106 43643,6917.883,95.438,540.477,539.019,0.0
53936.0,STARLINK-4791,PAYLOAD,2023-07-04 11:50:12,15.08840571,9.7e-05,53.218,14.645,90.8479,269.2625,4.7752e-05,4.72e-06,0.0,0 STARLINK-4791,1 53936U 22119BC  23185.49319862  .00000472  00000-0  47752-4 0  9994,2 53936  53.2180  14.6450 0000970  90.8479 269.2625 15.08840571 43794,6917.879,95.438,540.415,539.073,0.0
53936.0,STARLINK-4791,PAYLOAD,2023-07-05 19:37:55,15.08836334,9.87e-05,53.2183,8.698,90.887,269.2236,6.7182e-05,7.82e-06,0.0,0 STARLINK-4791,1 53936U 22119BC  23186.81800275  .00000782  00000-0  67182-4 0  9997,2 53936  53.2183   8.6980 0000987  90.8870 269.2236 15.08836334 43993,6917.892,95.438,540.439,539.074,0.0
53936.0,STARLINK-4791,PAYLOAD,2023-07-06 22:39:27,15.08851125,9.42e-05,53.218,3.6419,84.0547,276.0553,0.00016707,2.373e-05,0.0,0 STARLINK-4791,1 53936U 22119BC  23187.94407251  .00002373  00000-0  16707-3 0  9993,2 53936  53.2180   3.6419 0000942  84.0547 276.0553 15.08851125 44162,6917.846,95.437,540.363,539.06,0.0
53936.0,STARLINK-4791,PAYLOAD,2023-07-07 05:01:01,15.08842178,9.38e-05,53.2183,2.4529,84.1623,275.9476,8.2653e-05,1.028e-05,0.0,0 STARLINK-4791,1 53936U 22119BC  23188.20904042  .00001028  00000-0  82653-4 0  9993,2 53936  53.2183   2.4529 0000938  84.1623 275.9476 15.08842178 44200,6917.874,95.437,540.388,539.09,0.0
53936.0,STARLINK-4791,PAYLOAD,2023-07-08 19:10:16,15.08845511,9.46e-05,53.2175,355.3142,99.2158,260.8941,7.096e-05,8.42e-06,0.0,0 STARLINK-4791,1 53936U 22119BC  23189.79879711  .00000842  00000-0  70960-4 0  9993,2 53936  53.2175 355.3142 0000946  99.2158 260.8941 15.08845511 44441,6917.864,95.437,540.383,539.074,0.0
53936.0,STARLINK-4791,PAYLOAD,2023-07-09 11:04:08,15.08834794,9.15e-05,53.2181,352.3409,102.7008,257.4086,4.0452e-05,3.56e-06,0.0,0 STARLINK-4791,1 53936U 22119BC  23190.46120434  .00000356  00000-0  40452-4 0  9993,2 53936  53.2181 352.3409 0000915 102.7008 257.4086 15.08834794 44545,6917.896,95.438,540.394,539.128,0.0
53936.0,STARLINK-4791,PAYLOAD,2023-07-10 17:16:27,15.08843353,9.55e-05,53.2181,346.692,98.7511,261.3589,8.9856e-05,1.143e-05,0.0,0 STARLINK-4791,1 53936U 22119BC  23191.71975761  .00001143  00000-0  89856-4 0  9999,2 53936  53.2181 346.6920 0000955  98.7511 261.3589 15.08843353 44730,6917.87,95.437,540.396,539.074,0.0
53936.0,STARLINK-4791,PAYLOAD,2023-07-11 10:45:42,15.08832905,9.3e-05,53.2183,343.4214,98.1995,261.9103,5.0965e-05,5.23e-06,0.0,0 STARLINK-4791,1 53936U 22119BC  23192.44840678  .00000523  00000-0  50965-4 0  9998,2 53936  53.2183 343.4214 0000930  98.1995 261.9103 15.08832905 44847,6917.902,95.438,540.41,539.124,0.0
53936.0,STARLINK-4791,PAYLOAD,2023-07-12 02:39:33,15.08841892,9.16e-05,53.2186,340.4484,90.9556,269.1541,7.3557e-05,8.83e-06,0.0,0 STARLINK-4791,1 53936U 22119BC  23193.11080154  .00000883  00000-0  73557-4 0  9999,2 53936  53.2186 340.4484 0000916  90.9556 269.1541 15.08841892 44945,6917.875,95.437,540.373,539.106,0.0
53936.0,STARLINK-4791,PAYLOAD,2023-07-13 16:48:49,15.08832525,0.0001077,53.2191,333.3118,90.2002,269.9113,6.2046e-05,7e-06,0.0,0 STARLINK-4791,1 53936U 22119BC  23194.70057122  .00000700  00000-0  62046-4 0  9993,2 53936  53.2191 333.3118 0001077  90.2002 269.9113 15.08832525 45187,6917.903,95.438,540.513,539.023,0.0
53936.0,STARLINK-4791,PAYLOAD,2023-07-14 16:39:35,15.08847433,0.0001007,53.2181,328.8516,81.9717,278.1389,0.00013377,1.842e-05,0.0,0 STARLINK-4791,1 53936U 22119BC  23195.69416105  .00001842  00000-0  13377-3 0  9992,2 53936  53.2181 328.8516 0001007  81.9717 278.1389 15.08847433 45338,6917.858,95.437,540.419,539.026,0.0
53936.0,STARLINK-4791,PAYLOAD,2023-07-15 02:11:54,15.08841761,9.59e-05,53.2175,327.0665,78.3989,281.7111,6.6153e-05,7.65e-06,0.0,0 STARLINK-4791,1 53936U 22119BC  23196.09160539  .00000765  00000-0  66153-4 0  9998,2 53936  53.2175 327.0665 0000959  78.3989 281.7111 15.08841761 45390,6917.875,95.437,540.403,539.077,0.0
53936.0,STARLINK-4791,PAYLOAD,2023-07-16 02:02:42,15.08838436,0.0001005,53.2173,322.6066,84.2912,275.8195,4.2161e-05,3.83e-06,0.0,0 STARLINK-4791,1 53936U 22119BC  23197.08521075  .00000383  00000-0  42161-4 0  9993,2 53936  53.2173 322.6066 0001005  84.2912 275.8195 15.08838436 45547,6917.885,95.438,540.445,539.055,0.0
53936.0,STARLINK-4791,PAYLOAD,2023-07-17 11:25:47,15.08841633,0.0001222,53.2184,316.3574,102.724,257.3889,0.0001046,1.377e-05,0.0,0 STARLINK-4791,1 53936U 22119BC  23198.47624789  .00001377  00000-0  10460-3 0  9993,2 53936  53.2184 316.3574 0001222 102.7240 257.3889 15.08841633 45755,6917.875,95.437,540.586,538.895,0.0
53936.0,STARLINK-4791,PAYLOAD,2023-07-18 11:16:35,15.08835205,0.000117,53.2183,311.8988,102.3106,257.8017,5.6969e-05,6.19e-06,0.0,0 STARLINK-4791,1 53936U 22119BC  23199.46985504  .00000619  00000-0  56969-4 0  9991,2 53936  53.2183 311.8988 0001170 102.3106 257.8017 15.08835205 45905,6917.895,95.438,540.569,538.951,0.0
53936.0,STARLINK-4791,PAYLOAD,2023-07-19 15:53:31,15.08843061,0.000111,53.2178,306.5445,104.5958,255.5158,-8.4099e-06,-4.22e-06,0.0,0 STARLINK-4791,1 53936U 22119BC  23200.66217456 -.00000422  00000-0 -84099-5 0  9990,2 53936  53.2178 306.5445 0001110 104.5958 255.5158 15.08843061 46081,6917.871,95.437,540.504,538.968,0.0
53936.0,STARLINK-4791,PAYLOAD,2023-07-20 14:08:56,15.08823837,0.0001389,53.218,302.383,110.4483,249.6658,0.00043753,6.679e-05,0.0,0 STARLINK-4791,1 53936U 22119BC  23201.58953734  .00006679  00000-0  43753-3 0  9996,2 53936  53.2180 302.3830 0001389 110.4483 249.6658 15.08823837 46227,6917.93,95.439,540.756,538.834,0.0
53936.0,STARLINK-4791,PAYLOAD,2023-07-21 15:35:05,15.08841938,0.0001065,53.2177,297.6281,84.5115,275.5999,0.00018223,2.614e-05,0.0,0 STARLINK-4791,1 53936U 22119BC  23202.64937408  .00002614  00000-0  18223-3 0  9993,2 53936  53.2177 297.6281 0001065  84.5115 275.5999 15.08841938 46388,6917.874,95.437,540.476,539.003,0.0
53936.0,STARLINK-4791,PAYLOAD,2023-07-24 05:35:08,15.08838139,0.0001289,53.2167,286.0308,79.1751,280.9386,7.5495e-05,9.14e-06,0.0,0 STARLINK-4791,1 53936U 22119BC  23205.23273764  .00000914  00000-0  75495-4 0  9995,2 53936  53.2167 286.0308 0001289  79.1751 280.9386 15.08838139 47204,6917.886,95.438,540.643,538.859,0.0
53936.0,STARLINK-4791,PAYLOAD,2023-07-25 11:47:28,15.08839084,0.0001017,53.216,280.3786,93.1208,266.99,4.463e-05,4.23e-06,0.0,0 STARLINK-4791,1 53936U 22119BC  23206.49129804  .00000423  00000-0  44630-4 0  9991,2 53936  53.2160 280.3786 0001017  93.1208 266.9900 15.08839084 47392,6917.883,95.438,540.452,539.045,0.0
53936.0,STARLINK-4791,PAYLOAD,2023-07-26 05:16:42,15.08837563,0.0001082,53.2165,277.1091,91.7129,268.3987,3.543e-05,2.76e-06,0.0,0 STARLINK-4791,1 53936U 22119BC  23207.21994064  .00000276  00000-0  35430-4 0  9994,2 53936  53.2165 277.1091 0001082  91.7129 268.3987 15.08837563 47502,6917.888,95.438,540.501,539.004,0.0
